NORAD_CAT_ID,OBJECT_NAME,OBJECT_TYPE,EPOCH,MEAN_MOTION,ECCENTRICITY,INCLINATION,RA_OF_ASC_NODE,ARG_OF_PERICENTER,MEAN_ANOMALY,BSTAR,MEAN_MOTION_DOT,MEAN_MOTION_DDOT,TLE_LINE0,TLE_LINE1,TLE_LINE2,SEMIMAJOR_AXIS,PERIOD,APOGEE,PERIGEE,DECAYED
55643.0,STARLINK-5483,PAYLOAD,2024-04-10 12:55:26,14.967156,0.000299,69.999,144.8018,267.4001,92.6815,1.3021e-05,5.7e-07,0.0,0 STARLINK-5483,1 55643U 23021R   24101.53850452  .00000057  00000-0  13021-4 0  9994,2 55643  69.9990 144.8018 0002990 267.4001  92.6815 14.96715600 64216,6955.19,96.211,579.134,574.975,0.0
55643.0,STARLINK-5483,PAYLOAD,2024-04-11 04:57:49,14.96714245,0.000312,69.9989,143.121,271.1499,88.9301,-1.0824e-05,-2.16e-06,0.0,0 STARLINK-5483,1 55643U 23021R   24102.20682567 -.00000216  00000-0 -10824-4 0  9996,2 55643  69.9989 143.1210 0003120 271.1499  88.9301 14.96714245 64019,6955.194,96.211,579.229,574.889,0.0
55643.0,STARLINK-5483,PAYLOAD,2024-04-11 12:59:01,14.96713389,0.0002791,69.9989,142.2805,261.4021,98.6821,3.7724e-05,3.4e-06,0.0,0 STARLINK-5483,1 55643U 23021R   24102.54098492  .00000340  00000-0  37724-4 0  9995,2 55643  69.9989 142.2805 0002791 261.4021  98.6821 14.96713389 64366,6955.197,96.211,579.003,575.12,0.0
55643.0,STARLINK-5483,PAYLOAD,2024-04-11 19:23:58,14.9671712,0.0003132,69.9988,141.6082,271.4075,88.6724,2.0739e-05,1.46e-06,0.0,0 STARLINK-5483,1 55643U 23021R   24102.80831075  .00000146  00000-0  20739-4 0  9998,2 55643  69.9988 141.6082 0003132 271.4075  88.6724 14.96717120 64408,6955.185,96.211,579.228,574.872,0.0
55643.0,STARLINK-5483,PAYLOAD,2024-04-12 05:01:23,14.96722244,0.0003203,69.9985,140.5996,270.8854,89.1938,0.00010347,1.093e-05,0.0,0 STARLINK-5483,1 55643U 23021R   24103.20929579  .00001093  00000-0  10347-3 0  9995,2 55643  69.9985 140.5996 0003203 270.8854  89.1938 14.96722244 64163,6955.169,96.21,579.262,574.806,0.0
55643.0,STARLINK-5483,PAYLOAD,2024-04-12 11:26:20,14.96724176,0.0003011,69.9984,139.9267,267.7904,92.291,0.00011395,1.213e-05,0.0,0 STARLINK-5483,1 55643U 23021R   24103.47662099  .00001213  00000-0  11395-3 0  9993,2 55643  69.9984 139.9267 0003011 267.7904  92.2910 14.96724176 64502,6955.163,96.21,579.122,574.934,0.0
55643.0,STARLINK-5483,PAYLOAD,2024-04-13 05:04:58,14.96712151,0.0003032,69.9986,138.0783,269.8284,90.2527,-5.0284e-05,-6.67e-06,0.0,0 STARLINK-5483,1 55643U 23021R   24104.21178400 -.00000667  00000-0 -50284-4 0  9999,2 55643  69.9986 138.0783 0003032 269.8284  90.2527 14.96712151 64315,6955.2,96.211,579.174,574.957,0.0
55643.0,STARLINK-5483,PAYLOAD,2024-04-13 11:29:55,14.96708744,0.0003053,69.9986,137.4061,269.1678,90.913,-8.438e-05,-1.057e-05,0.0,0 STARLINK-5483,1 55643U 23021R   24104.47911554 -.00001057  00000-0 -84380-4 0  9990,2 55643  69.9986 137.4061 0003053 269.1678  90.9130 14.96708744 64657,6955.211,96.211,579.199,574.953,0.0
55643.0,STARLINK-5483,PAYLOAD,2024-04-14 05:08:32,14.96716815,0.0003028,69.9985,135.5569,268.8686,91.2126,-0.00010421,-1.284e-05,0.0,0 STARLINK-5483,1 55643U 23021R   24105.21426371 -.00001284  00000-0 -10421-3 0  9997,2 55643  69.9985 135.5569 0003028 268.8686  91.2126 14.96716815 64461,6955.186,96.211,579.157,574.945,0.0
55643.0,STARLINK-5483,PAYLOAD,2024-04-14 11:33:29,14.96715002,0.0002935,69.9989,134.8851,264.8614,95.2209,-8.8526e-05,-1.105e-05,0.0,0 STARLINK-5483,1 55643U 23021R   24105.48159228 -.00001105  00000-0 -88526-4 0  9994,2 55643  69.9989 134.8851 0002935 264.8614  95.2209 14.96715002 64805,6955.192,96.211,579.098,575.015,0.0
55643.0,STARLINK-5483,PAYLOAD,2024-04-15 05:12:06,14.96711891,0.0003141,69.9983,133.0359,269.7609,90.3189,8.0844e-05,8.34e-06,0.0,0 STARLINK-5483,1 55643U 23021R   24106.21674218  .00000834  00000-0  80844-4 0  9998,2 55643  69.9983 133.0359 0003141 269.7609  90.3189 14.96711891 64615,6955.201,96.211,579.251,574.882,0.0
55643.0,STARLINK-5483,PAYLOAD,2024-04-15 11:37:03,14.967134,0.0003094,69.9985,132.3638,268.457,91.6234,9.3846e-05,9.83e-06,0.0,0 STARLINK-5483,1 55643U 23021R   24106.48406927  .00000983  00000-0  93846-4 0  9998,2 55643  69.9985 132.3638 0003094 268.4570  91.6234 14.96713400 64959,6955.197,96.211,579.214,574.91,0.0
55643.0,STARLINK-5483,PAYLOAD,2024-04-15 19:38:15,14.96713462,0.0003052,69.9985,131.5229,270.5071,89.5737,5.5008e-05,5.38e-06,0.0,0 STARLINK-5483,1 55643U 23021R   24106.81823081  .00000538  00000-0  55008-4 0  9993,2 55643  69.9985 131.5229 0003052 270.5071  89.5737 14.96713462 65009,6955.196,96.211,579.184,574.939,0.0
55643.0,STARLINK-5483,PAYLOAD,2024-04-16 05:15:40,14.96714728,0.0003071,69.9985,130.5144,270.364,89.7166,3.7573e-05,3.38e-06,0.0,0 STARLINK-5483,1 55643U 23021R   24107.21922267  .00000338  00000-0  37573-4 0  9999,2 55643  69.9985 130.5144 0003071 270.3640  89.7166 14.96714728 64761,6955.192,96.211,579.193,574.922,0.0
55643.0,STARLINK-5483,PAYLOAD,2024-04-16 11:40:37,14.96717155,0.0003056,69.9985,129.8421,270.2923,89.7885,6.3036e-05,6.3e-06,0.0,0 STARLINK-5483,1 55643U 23021R   24107.48654826  .00000630  00000-0  63036-4 0  9999,2 55643  69.9985 129.8421 0003056 270.2923  89.7885 14.96717155 65100,6955.185,96.211,579.175,574.924,0.0
55643.0,STARLINK-5483,PAYLOAD,2024-04-17 05:19:17,14.96689762,0.0003235,69.9983,127.9932,277.5197,82.5594,-0.0002958,-3.473e-05,0.0,0 STARLINK-5483,1 55643U 23021R   24108.22173087 -.00003473  00000-0 -29580-3 0  9992,2 55643  69.9983 127.9932 0003235 277.5197  82.5594 14.96689762 64914,6955.27,96.212,579.385,574.885,0.0
55643.0,STARLINK-5483,PAYLOAD,2024-04-17 11:44:14,14.96690438,0.0003029,69.9984,127.3209,271.6104,88.4707,-0.00027068,-3.186e-05,0.0,0 STARLINK-5483,1 55643U 23021R   24108.48906123 -.00003186  00000-0 -27068-3 0  9995,2 55643  69.9984 127.3209 0003029 271.6104  88.4707 14.96690438 65251,6955.268,96.212,579.239,575.026,0.0
55643.0,STARLINK-5483,PAYLOAD,2024-04-18 03:46:36,14.96708265,0.0003044,69.9984,125.64,271.9776,88.1033,-4.2025e-05,-5.72e-06,0.0,0 STARLINK-5483,1 55643U 23021R   24109.15736893 -.00000572  00000-0 -42025-4 0  9992,2 55643  69.9984 125.6400 0003044 271.9776  88.1033 14.96708265 65055,6955.213,96.211,579.195,574.96,0.0
55643.0,STARLINK-5483,PAYLOAD,2024-04-18 11:47:48,14.96709099,0.0002711,69.9993,124.7998,273.2913,86.7935,2.6389e-05,2.1e-06,0.0,0 STARLINK-5483,1 55643U 23021R   24109.49152894  .00000210  00000-0  26389-4 0  9994,2 55643  69.9993 124.7998 0002711 273.2913  86.7935 14.96709099 65405,6955.21,96.211,578.96,575.189,0.0
55643.0,STARLINK-5483,PAYLOAD,2024-04-19 05:26:24,14.96706916,0.0003474,69.9974,122.9496,277.7103,82.366,0.00030168,3.362e-05,0.0,0 STARLINK-5483,1 55643U 23021R   24110.22667533  .00003362  00000-0  30168-3 0  9998,2 55643  69.9974 122.9496 0003474 277.7103  82.3660 14.96706916 65215,6955.217,96.211,579.498,574.665,0.0
55643.0,STARLINK-5483,PAYLOAD,2024-04-19 10:15:07,14.96711999,0.0003323,69.9978,122.4459,275.1597,84.9182,0.00034662,3.878e-05,0.0,0 STARLINK-5483,1 55643U 23021R   24110.42716741  .00003878  00000-0  34662-3 0  9991,2 55643  69.9978 122.4459 0003323 275.1597  84.9182 14.96711999 65545,6955.201,96.211,579.377,574.755,0.0
55643.0,STARLINK-5483,PAYLOAD,2024-04-20 05:29:56,14.96743548,0.0002796,69.9982,120.429,254.7375,105.3474,0.00025724,2.856e-05,0.0,0 STARLINK-5483,1 55643U 23021R   24111.22912971  .00002856  00000-0  25724-3 0  9997,2 55643  69.9982 120.4290 0002796 254.7375 105.3474 14.96743548 65368,6955.103,96.209,578.913,575.024,0.0
55643.0,STARLINK-5483,PAYLOAD,2024-04-20 10:18:36,14.96775219,0.0002937,69.9982,119.9248,273.7679,86.3144,0.00060451,6.845e-05,0.0,0 STARLINK-5483,1 55643U 23021R   24111.42959298  .00006845  00000-0  60451-3 0  9990,2 55643  69.9982 119.9248 0002937 273.7679  86.3144 14.96775219 65394,6955.005,96.207,578.913,574.827,0.0
55643.0,STARLINK-5483,PAYLOAD,2024-04-21 03:57:19,14.96703616,0.0002557,69.9993,118.0766,258.5565,101.5307,-0.00029839,-3.504e-05,0.0,0 STARLINK-5483,1 55643U 23021R   24112.16480383 -.00003504  00000-0 -29839-3 0  9992,2 55643  69.9993 118.0766 0002557 258.5565 101.5307 14.96703616 65500,6955.227,96.211,578.87,575.313,0.0
55643.0,STARLINK-5483,PAYLOAD,2024-04-21 10:22:16,14.96705484,0.0002836,69.9985,117.4037,264.0667,96.0168,-0.00030141,-3.539e-05,0.0,0 STARLINK-5483,1 55643U 23021R   24112.43213124 -.00003539  00000-0 -30141-3 0  9995,2 55643  69.9985 117.4037 0002836 264.0667  96.0168 14.96705484 65845,6955.221,96.211,579.059,575.114,0.0
55643.0,STARLINK-5483,PAYLOAD,2024-04-22 04:00:52,14.96738033,0.000272,69.9978,115.5541,258.5712,101.5141,-0.00073842,-8.538e-05,0.0,0 STARLINK-5483,1 55643U 23021R   24113.16727687 -.00008538  00000-0 -73842-3 0  9999,2 55643  69.9978 115.5541 0002720 258.5712 101.5141 14.96738033 65655,6955.12,96.209,578.877,575.093,0.0
55643.0,STARLINK-5483,PAYLOAD,2024-04-22 10:25:49,14.96735463,0.0002349,69.9989,114.8821,256.7142,103.3754,-0.00066345,-7.68e-05,0.0,0 STARLINK-5483,1 55643U 23021R   24113.43460186 -.00007680  00000-0 -66345-3 0  9994,2 55643  69.9989 114.8821 0002349 256.7142 103.3754 14.96735463 65995,6955.128,96.209,578.627,575.359,0.0
55643.0,STARLINK-5483,PAYLOAD,2024-04-23 04:04:27,14.96699,0.0002881,69.9979,113.0327,261.4733,98.6098,0.0001691,1.844e-05,0.0,0 STARLINK-5483,1 55643U 23021R   24114.16975732  .00001844  00000-0  16910-3 0  9990,2 55643  69.9979 113.0327 0002881 261.4733  98.6098 14.96699000 65809,6955.241,96.212,579.11,575.102,0.0
55643.0,STARLINK-5483,PAYLOAD,2024-04-23 10:29:24,14.96702403,0.0002821,69.9981,112.3604,261.1791,98.9047,0.00019642,2.156e-05,0.0,0 STARLINK-5483,1 55643U 23021R   24114.43708500  .00002156  00000-0  19642-3 0  9999,2 55643  69.9981 112.3604 0002821 261.1791  98.9047 14.96702403 66144,6955.231,96.212,579.058,575.134,0.0
55643.0,STARLINK-5483,PAYLOAD,2024-04-24 04:08:00,14.96713262,0.0003089,69.9981,110.5113,265.2334,94.8471,0.00020422,2.246e-05,0.0,0 STARLINK-5483,1 55643U 23021R   24115.17223237  .00002246  00000-0  20422-3 0  9998,2 55643  69.9981 110.5113 0003089 265.2334  94.8471 14.96713262 65953,6955.197,96.211,579.21,574.914,0.0
